NORAD_CAT_ID,OBJECT_NAME,OBJECT_TYPE,EPOCH,MEAN_MOTION,ECCENTRICITY,INCLINATION,RA_OF_ASC_NODE,ARG_OF_PERICENTER,MEAN_ANOMALY,BSTAR,MEAN_MOTION_DOT,MEAN_MOTION_DDOT,TLE_LINE0,TLE_LINE1,TLE_LINE2,SEMIMAJOR_AXIS,PERIOD,APOGEE,PERIGEE,DECAYED
56801.0,STARLINK-6087,PAYLOAD,2023-10-26 13:41:12,15.6991835,0.0003185,69.9976,356.3408,265.9426,94.1406,9.2868e-06,9.04e-06,0.0,0 STARLINK-6087,1 56801U 23078AL  23299.57027896  .00000904  00000-0  92868-5 0  9990,2 56801  69.9976 356.3408 0003185 265.9426  94.1406 15.69918350 23329,6737.268,91.725,361.278,356.987,0.0
56801.0,STARLINK-6087,PAYLOAD,2023-10-27 04:58:42,15.69929234,0.000308,69.9967,354.5488,268.9111,91.1732,1.4079e-05,1.481e-05,0.0,0 STARLINK-6087,1 56801U 23078AL  23300.20743763  .00001481  00000-0  14079-4 0  9999,2 56801  69.9967 354.5488 0003080 268.9111  91.1732 15.69929234 23686,6737.236,91.724,361.177,357.026,0.0
56801.0,STARLINK-6087,PAYLOAD,2023-10-27 14:09:14,15.6991368,0.000336,69.9989,353.4773,258.9321,101.1497,2.4882e-06,8.6e-07,0.0,0 STARLINK-6087,1 56801U 23078AL  23300.58975000  .00000086  00000-0  24882-5 0  9995,2 56801  69.9989 353.4773 0003360 258.9321 101.1497 15.69913680 23484,6737.281,91.725,361.41,356.882,0.0
56801.0,STARLINK-6087,PAYLOAD,2023-10-28 13:05:31,15.69920771,0.0003358,69.9971,350.7867,272.5104,87.5707,2.1649e-06,4.7e-07,0.0,0 STARLINK-6087,1 56801U 23078AL  23301.54550001  .00000047  00000-0  21649-5 0  9997,2 56801  69.9971 350.7867 0003358 272.5104  87.5707 15.69920771 23634,6737.261,91.724,361.388,356.863,0.0
56801.0,STARLINK-6087,PAYLOAD,2023-10-28 20:44:15,15.69941303,0.0003198,69.9963,349.8896,269.057,91.026,1.3018e-05,1.354e-05,0.0,0 STARLINK-6087,1 56801U 23078AL  23301.86406766  .00001354  00000-0  13018-4 0  9992,2 56801  69.9963 349.8896 0003198 269.0570  91.0260 15.69941303 23689,6737.202,91.723,361.221,356.912,0.0
56801.0,STARLINK-6087,PAYLOAD,2023-10-29 04:23:01,15.69935788,0.0003124,69.9964,348.995,269.7563,90.3275,1.1973e-05,1.228e-05,0.0,0 STARLINK-6087,1 56801U 23078AL  23302.18265273  .00001228  00000-0  11973-4 0  9992,2 56801  69.9964 348.9950 0003124 269.7563  90.3275 15.69935788 23991,6737.218,91.723,361.187,356.978,0.0
56801.0,STARLINK-6087,PAYLOAD,2023-10-29 12:01:49,15.69900396,0.0003361,69.9976,348.1001,284.0207,76.0615,-1.3293e-05,-1.809e-05,0.0,0 STARLINK-6087,1 56801U 23078AL  23302.50126446 -.00001809  00000-0 -13293-4 0  9990,2 56801  69.9976 348.1001 0003361 284.0207  76.0615 15.69900396 24044,6737.319,91.726,361.448,356.92,0.0
56801.0,STARLINK-6087,PAYLOAD,2023-10-29 13:33:32,15.69920766,0.000347,69.9976,347.9207,286.3305,73.7508,9.1163e-06,8.83e-06,0.0,0 STARLINK-6087,1 56801U 23078AL  23302.56496473  .00000883  00000-0  91163-5 0  9998,2 56801  69.9976 347.9207 0003470 286.3305  73.7508 15.69920766 23793,6737.261,91.724,361.464,356.788,0.0
56801.0,STARLINK-6087,PAYLOAD,2023-10-30 12:29:50,15.6991226,0.0003189,69.9977,345.2336,277.0041,83.0791,-5.2978e-06,-8.49e-06,0.0,0 STARLINK-6087,1 56801U 23078AL  23303.52072603 -.00000849  00000-0 -52978-5 0  9995,2 56801  69.9977 345.2336 0003189 277.0041  83.0791 15.69912260 24204,6737.285,91.725,361.299,357.002,0.0
56801.0,STARLINK-6087,PAYLOAD,2023-10-30 20:08:39,15.69878793,0.0003268,69.9974,344.3372,269.1951,90.887,-5.8183e-05,-7.189e-05,0.0,0 STARLINK-6087,1 56801U 23078AL  23303.83934307 -.00007189  00000-0 -58183-4 0  9994,2 56801  69.9974 344.3372 0003268 269.1951  90.8870 15.69878793 24252,6737.381,91.727,361.448,357.044,0.0
56801.0,STARLINK-6087,PAYLOAD,2023-10-31 05:19:08,15.69904611,0.0002695,69.9991,343.2643,267.6296,92.4591,-2.9243e-05,-3.724e-05,0.0,0 STARLINK-6087,1 56801U 23078AL  23304.22162918 -.00003724  00000-0 -29243-4 0  9995,2 56801  69.9991 343.2643 0002695 267.6296  92.4591 15.69904611 24312,6737.307,91.725,360.988,357.356,0.0
56801.0,STARLINK-6087,PAYLOAD,2023-10-31 12:57:52,15.69930948,0.0002787,69.999,342.3666,242.9684,117.1227,2.4206e-07,-1.83e-06,0.0,0 STARLINK-6087,1 56801U 23078AL  23304.54018860 -.00000183  00000-0  24206-6 0  9997,2 56801  69.9990 342.3666 0002787 242.9684 117.1227 15.69930948 24363,6737.232,91.724,360.974,357.219,0.0
56801.0,STARLINK-6087,PAYLOAD,2023-11-01 04:15:21,15.6994515,0.0003508,69.9982,340.576,273.5961,86.4834,4.4096e-05,5.097e-05,0.0,0 STARLINK-6087,1 56801U 23078AL  23305.17733038  .00005097  00000-0  44096-4 0  9993,2 56801  69.9982 340.5760 0003508 273.5961  86.4834 15.69945150 24463,6737.191,91.723,361.419,356.693,0.0
56801.0,STARLINK-6087,PAYLOAD,2023-11-01 11:54:09,15.69914076,0.0003073,69.9987,339.6802,274.1757,85.9087,8.1712e-06,7.7e-06,0.0,0 STARLINK-6087,1 56801U 23078AL  23305.49594169  .00000770  00000-0  81712-5 0  9998,2 56801  69.9987 339.6802 0003073 274.1757  85.9087 15.69914076 24514,6737.28,91.725,361.215,357.074,0.0
56801.0,STARLINK-6087,PAYLOAD,2023-11-01 19:32:54,15.69920211,0.0003086,69.9996,338.7838,273.3478,86.7365,1.7983e-05,1.95e-05,0.0,0 STARLINK-6087,1 56801U 23078AL  23305.81451971  .00001950  00000-0  17983-4 0  9996,2 56801  69.9996 338.7838 0003086 273.3478  86.7365 15.69920211 24569,6737.262,91.724,361.206,357.048,0.0
56801.0,STARLINK-6087,PAYLOAD,2023-11-02 04:43:25,15.69914153,0.0002467,69.9999,337.7114,267.6074,92.4839,1.9584e-05,2.142e-05,0.0,0 STARLINK-6087,1 56801U 23078AL  23306.19682687  .00002142  00000-0  19584-4 0  9991,2 56801  69.9999 337.7114 0002467 267.6074  92.4839 15.69914153 24623,6737.28,91.725,360.807,357.483,0.0
56801.0,STARLINK-6087,PAYLOAD,2023-11-02 12:22:11,15.69913524,0.0002595,70.0001,336.8145,260.0906,99.9997,9.5117e-06,9.31e-06,0.0,0 STARLINK-6087,1 56801U 23078AL  23306.51541387  .00000931  00000-0  95117-5 0  9999,2 56801  70.0001 336.8145 0002595 260.0906  99.9997 15.69913524 24412,6737.281,91.725,360.895,357.398,0.0
56801.0,STARLINK-6087,PAYLOAD,2023-11-03 05:11:27,15.69914706,0.000286,69.998,334.8433,263.9489,96.1381,1.8437e-05,2.004e-05,0.0,0 STARLINK-6087,1 56801U 23078AL  23307.21628528  .00002004  00000-0  18437-4 0  9992,2 56801  69.9980 334.8433 0002860 263.9489  96.1381 15.69914706 24785,6737.278,91.725,361.07,357.216,0.0
56801.0,STARLINK-6087,PAYLOAD,2023-11-03 11:18:28,15.69907548,0.0002895,69.9977,334.1252,272.4242,87.6622,9.5149e-06,9.31e-06,0.0,0 STARLINK-6087,1 56801U 23078AL  23307.47116045  .00000931  00000-0  95149-5 0  9999,2 56801  69.9977 334.1252 0002895 272.4242  87.6622 15.69907548 24827,6737.299,91.725,361.114,357.213,0.0
56801.0,STARLINK-6087,PAYLOAD,2023-11-03 18:57:13,15.69921805,0.000322,69.9986,333.2298,271.0793,89.0034,-2.9474e-06,-5.67e-06,0.0,0 STARLINK-6087,1 56801U 23078AL  23307.78973895 -.00000567  00000-0 -29474-5 0  9992,2 56801  69.9986 333.2298 0003220 271.0793  89.0034 15.69921805 24876,6737.258,91.724,361.292,356.953,0.0
56801.0,STARLINK-6087,PAYLOAD,2023-11-04 11:46:29,15.69920969,0.0003023,69.9993,331.2587,268.8047,91.2802,6.4298e-06,5.6e-06,0.0,0 STARLINK-6087,1 56801U 23078AL  23308.49062186  .00000560  00000-0  64298-5 0  9997,2 56801  69.9993 331.2587 0003023 268.8047  91.2802 15.69920969 24722,6737.26,91.724,361.162,357.088,0.0
56801.0,STARLINK-6087,PAYLOAD,2023-11-04 19:25:14,15.69928638,0.0003256,69.9989,330.3635,268.0601,92.0222,2.6201e-06,1.02e-06,0.0,0 STARLINK-6087,1 56801U 23078AL  23308.80920121  .00000102  00000-0  26201-5 0  9998,2 56801  69.9989 330.3635 0003256 268.0601  92.0222 15.69928638 25038,6737.238,91.724,361.297,356.91,0.0
56801.0,STARLINK-6087,PAYLOAD,2023-11-05 04:35:46,15.69918244,0.0002699,69.9966,329.2869,264.9722,95.1165,3.1787e-07,-1.74e-06,0.0,0 STARLINK-6087,1 56801U 23078AL  23309.19150684 -.00000174  00000-0  31787-6 0  9996,2 56801  69.9966 329.2869 0002699 264.9722  95.1165 15.69918244 25096,6737.268,91.725,360.951,357.315,0.0
56801.0,STARLINK-6087,PAYLOAD,2023-11-05 10:42:46,15.69918183,0.0002829,69.9978,328.5719,271.3554,88.7318,5.9385e-07,-1.41e-06,0.0,0 STARLINK-6087,1 56801U 23078AL  23309.44637490 -.00000141  00000-0  59385-6 0  9997,2 56801  69.9978 328.5719 0002829 271.3554  88.7318 15.69918183 24870,6737.268,91.725,361.039,357.227,0.0
56801.0,STARLINK-6087,PAYLOAD,2023-11-05 18:21:31,15.69931828,0.0003258,69.9971,327.6765,272.7423,87.34,1.8673e-05,2.034e-05,0.0,0 STARLINK-6087,1 56801U 23078AL  23309.76494392  .00002034  00000-0  18673-4 0  9999,2 56801  69.9971 327.6765 0003258 272.7423  87.3400 15.69931828 25184,6737.229,91.724,361.289,356.899,0.0
56801.0,STARLINK-6087,PAYLOAD,2023-11-06 03:32:03,15.69910075,0.0005288,69.9991,326.6017,297.1587,62.9069,-1.3666e-05,-1.857e-05,0.0,0 STARLINK-6087,1 56801U 23078AL  23310.14725981 -.00001857  00000-0 -13666-4 0  9995,2 56801  69.9991 326.6017 0005288 297.1587  62.9069 15.69910075 25240,6737.291,91.725,362.719,355.594,0.0
56801.0,STARLINK-6087,PAYLOAD,2023-11-06 11:10:52,15.69857029,0.0002372,69.9991,325.7037,273.8274,86.2651,-7.7897e-05,-9.54e-05,0.0,0 STARLINK-6087,1 56801U 23078AL  23310.46589002 -.00009540  00000-0 -77897-4 0  9995,2 56801  69.9991 325.7037 0002372 273.8274  86.2651 15.69857029 25297,6737.443,91.728,360.906,357.71,0.0
56801.0,STARLINK-6087,PAYLOAD,2023-11-06 18:49:37,15.69872139,0.0003248,69.9993,324.8104,269.7768,90.3055,-5.9121e-05,-7.3e-05,0.0,0 STARLINK-6087,1 56801U 23078AL  23310.78446715 -.00007300  00000-0 -59121-4 0  9995,2 56801  69.9993 324.8104 0003248 269.7768  90.3055 15.69872139 25348,6737.4,91.727,361.453,357.077,0.0
56801.0,STARLINK-6087,PAYLOAD,2023-11-07 04:00:06,15.69915946,0.000269,69.9985,323.7342,268.3786,91.7102,-2.0151e-05,-2.633e-05,0.0,0 STARLINK-6087,1 56801U 23078AL  23311.16673888 -.00002633  00000-0 -20151-4 0  9996,2 56801  69.9985 323.7342 0002690 268.3786  91.7102 15.69915946 25405,6737.274,91.725,360.952,357.327,0.0
56801.0,STARLINK-6087,PAYLOAD,2023-11-07 10:07:05,15.69937982,0.0002773,70.0,323.0181,256.5817,103.5069,7.1346e-07,-1.27e-06,0.0,0 STARLINK-6087,1 56801U 23078AL  23311.42158576 -.00000127  00000-0  71346-6 0  9996,2 56801  70.0000 323.0181 0002773 256.5817 103.5069 15.69937982 25448,6737.211,91.723,360.945,357.208,0.0
